STARLINK-1198           
1 45200U 20012Y   21015.52095914  .00000015  00000-0  19924-4 0  9995
2 45200  53.0564 182.5083 0001381  83.0231 277.0915 15.06395832 51888
STARLINK-1199           
1 45201U 20012Z   21015.79004272 -.00000033  00000-0  16655-4 0  9991
2 45201  53.0582 181.2971 0001448  79.3183 280.7969 15.06398506 50980
STARLINK-1203           
1 45202U 20012AA  21015.51991251  .00002037  00000-0  15503-3 0  9999
2 45202  52.9813 201.5858 0002339  95.5138 264.6117 15.06556808 51647
STARLINK-1204           
1 45203U 20012AB  21015.55119958  .00000140  00000-0  28826-4 0  9996
2 45203  52.9997 182.3969 0002235  95.0316 265.0927 15.05584669 51827
STARLINK-1206           
1 45204U 20012AC  21015.55044246 -.00000001  00000-0  18821-4 0  9995
2 45204  53.0565 182.3794 0001691  86.4953 273.6230 15.06395394 51900
STARLINK-1208           
1 45205U 20012AD  21015.50622158  .00000211  00000-0  33047-4 0  9994
2 45205  53.0572 182.5750 0001644  69.7056 290.4110 15.06387295 51904
STARLINK-1209           
1 45206U 20012AE  21015.53387241  .00000041  00000-0  21683-4 0  9993
2 45206  53.0562 162.4566 0001997 102.1895 257.9317 15.06382615 51212
STARLINK-1210           
1 45207U 20012AF  21015.52833742  .00001951  00000-0  14983-3 0  9990
2 45207  53.0583 182.4752 0001504  80.1944 279.9214 15.06396684 51883
STARLINK-1211           
1 45208U 20012AG  21015.54121691  .00001841  00000-0  14550-3 0  9994
2 45208  52.9996 182.4433 0002272 103.9992 256.1249 15.05585433 51826
STARLINK-1218           
1 45209U 20012AH  21015.55781588 -.00001576  00000-0 -86912-4 0  9992
2 45209  53.0588 182.3451 0001899  80.0941 280.0262 15.06400988 51832
STARLINK-1219           
1 45210U 20012AJ  21015.53204077  .00001878  00000-0  14500-3 0  9991
2 45210  53.0522 182.4510 0001186  94.0287 266.0838 15.06387670 51774
STARLINK-1231           
1 45212U 20012AL  21015.56519492  .00000188  00000-0  31553-4 0  9997
2 45212  53.0581 182.3063 0001633  75.6386 284.4784 15.06397840 51847
STARLINK-1232           
1 45213U 20012AM  21015.50256397  .00000309  00000-0  39649-4 0  9993
2 45213  53.0583 182.5877 0001726  81.1909 278.9276 15.06391364 51884
STARLINK-1233           
1 45214U 20012AN  21015.80477640  .00000071  00000-0  23633-4 0  9995
2 45214  53.0583 181.2338 0001539  75.5367 284.5792 15.06409335 50984
STARLINK-1245           
1 45215U 20012AP  21015.53571251  .00000202  00000-0  32466-4 0  9999
2 45215  53.0575 182.4442 0001559  68.8345 291.2811 15.06389761 51829
STARLINK-1254           
1 45216U 20012AQ  21015.56150573 -.00001558  00000-0 -85688-4 0  9994
2 45216  53.0573 182.3324 0001718  77.5797 282.5384 15.06399954 51734
STARLINK-1271           
1 45217U 20012AR  21015.50990578 -.00000598  00000-0 -21250-4 0  9994
2 45217  53.0577 182.5618 0001429  69.2639 290.8503 15.06390315 51882
STARLINK-1105           
1 45218U 20012AS  21015.54493855  .00000136  00000-0  28063-4 0  9990
2 45218  53.0585 162.4119 0002424  95.8912 264.2353 15.06383573 52180
STARLINK-1187           
1 45219U 20012AT  21015.50805848 -.00000350  00000-0 -45828-5 0  9995
2 45219  53.0573 162.5783 0001916 102.0295 258.0908 15.06413536 51219
STARLINK-1188           
1 45220U 20012AU  21015.78081946  .00000111  00000-0  26380-4 0  9996
2 45220  53.0581 161.3515 0001767  96.0378 264.0813 15.06391031 51260
STARLINK-1189           
1 45221U 20012AV  21015.51176344  .00000337  00000-0  41572-4 0  9995
2 45221  53.0559 162.5564 0001885 100.6016 259.5185 15.06388731 52169
STARLINK-1191           
1 45222U 20012AW  21015.51911774 -.00000259  00000-0  15298-5 0  9991
2 45222  53.0562 162.5218 0002539  81.5904 278.5373 15.06388055 52169
STARLINK-1212           
1 45223U 20012AX  21015.54124199 -.00001429  00000-0 -77053-4 0  9999
2 45223  53.0575 162.4233 0002007  93.6269 266.4949 15.06393329 51230
STARLINK-1214           
1 45224U 20012AY  21015.54746827  .00000215  00000-0  33940-4 0  9995
2 45224  53.0000 162.4126 0001901  94.6089 265.5116 15.05579394 52063
STARLINK-1215           
1 45225U 20012AZ  21015.55967351  .00000296  00000-0  38832-4 0  9998
2 45225  53.0580 162.3436 0003142  63.1180 297.0130 15.06389505 52129
STARLINK-1217           
1 45226U 20012BA  21015.50068731  .00000213  00000-0  33200-4 0  9991
2 45226  53.0577 162.6042 0002015  91.7165 268.4055 15.06383664 52072
STARLINK-1221           
1 45227U 20012BB  21015.52282404  .00000788  00000-0  71791-4 0  9993
2 45227  53.0594 162.5140 0002170  95.5434 264.5803 15.06400519 52081
STARLINK-1222           
1 45228U 20012BC  21015.52648921  .00000092  00000-0  25091-4 0  9994
2 45228  53.0581 162.4876 0001889  86.0420 274.0785 15.06391737 52052
STARLINK-1226           
1 45229U 20012BD  21015.55598242 -.00001477  00000-0 -80264-4 0  9991
2 45229  53.0577 162.3586 0002097  95.7318 264.3910 15.06399574 52060
STARLINK-1227           
1 45230U 20012BE  21015.75132211 -.00000854  00000-0 -38451-4 0  9994
2 45230  53.0576 161.4803 0002147  89.9802 270.1433 15.06396255 51261
STARLINK-1229           
1 45231U 20012BF  21015.52090745  .00000443  00000-0  49608-4 0  9993
2 45231  53.0000 162.5348 0002155  98.7896 261.3336 15.05592220 52051
STARLINK-1235           
1 45232U 20012BG  21015.49701540  .00002075  00000-0  15817-3 0  9999
2 45232  53.0583 162.6213 0002710  71.0828 289.0455 15.06404678 51201
STARLINK-1238           
1 45233U 20012BH  21015.54307277  .00000607  00000-0  59632-4 0  9998
2 45233  53.0564 182.4150 0001735  82.3922 277.7264 15.06405904 51875
STARLINK-1243           
1 45234U 20012BJ  21015.51543859  .00002631  00000-0  19549-3 0  9995
2 45234  53.0581 202.5319 0001693  75.0437 285.0739 15.06392301 51571
STARLINK-1246           
1 45235U 20012BK  21015.56702680  .00000029  00000-0  20891-4 0  9992
2 45235  53.0557 202.3032 0002156  82.1017 278.0216 15.06400641 51639
STARLINK-1247           
1 45236U 20012BL  21015.74765465  .00001814  00000-0  14068-3 0  9994
2 45236  53.0561 161.4921 0001882  95.6059 264.5145 15.06396748 51269
STARLINK-1270           
1 45237U 20012BM  21015.57072445 -.00001535  00000-0 -84132-4 0  9997
2 45237  53.0587 162.2899 0002068 109.1964 250.9249 15.06399263 52174
JCSAT-17                
1 45245U 20013A   21015.25908685 -.00000317  00000-0  00000-0 0  9990
2 45245   6.6766 344.0868 0004139 318.3836  41.7181  1.00270282  3394
GEO-KOMPSAT-2B          
1 45246U 20013B   21015.55299940 -.00000350  00000-0  00000-0 0  9998
2 45246   0.0460 206.6567 0000654 214.7754  21.0984  1.00272086  3418
XJS C                   
1 45249U 20014A   21015.80648904  .00002216  00000-0  77697-4 0  9990
2 45249  35.0160 142.2464 0009006   8.0882 122.6285 15.29135128 50676
XJS D                   
1 45250U 20014B   21015.80648935  .00002228  00000-0  78127-4 0  9998
2 45250  35.0163 142.2588 0008815   7.9294 123.1502 15.29132985 50676
XJS E                   
1 45251U 20014C   21015.80673377  .00001806  00000-0  63600-4 0  9998
2 45251  35.0164 142.2604 0008794  12.7330 118.8120 15.29130946 50636
XJS F                   
1 45253U 20014E   21015.80635093  .00001743  00000-0  61425-4 0  9996
2 45253  35.0152 142.2381 0008607   9.0916 122.0833 15.29132923 50634
MERIDIAN 9              
1 45254U 20015A   21015.75741994  .00000286  00000-0  00000+0 0  9998
2 45254  62.9401 183.7996 7021271 295.3618 184.0414  2.00604481  6622
HARP                    
1 45256U 98067QZ  21015.47563285  .00008311  00000-0  12969-3 0  9994
2 45256  51.6427  11.7701 0007881  64.3217 295.8587 15.54740190 51447
1998-067RA              
1 45257U 98067RA  21015.37412031  .00006418  00000-0  10370-3 0  9996
2 45257  51.6415  12.5673 0008396  66.0093 294.1776 15.54227001 51426
PHOENIX                 
1 45258U 98067RB  21015.42529388  .00005194  00000-0  87157-4 0  9995
2 45258  51.6414  12.8965 0006646  49.6664 310.4906 15.53633715 51395
1998-067RC              
1 45259U 98067RC  21015.43800154  .00010273  00000-0  15155-3 0  9992
2 45259  51.6407  10.7434 0007736  64.1238 296.0551 15.55989655 51457
CRYOCUBE                
1 45260U 98067RD  21015.35232929  .00011286  00000-0  16592-3 0  9995
2 45260  51.6408  10.9233 0008406  64.1671 296.0186 15.55962428 51458
AZTECHSAT-1             
1 45261U 98067RE  21015.55943186  .00011991  00000-0  16610-3 0  9996
2 45261  51.6402   8.5541 0008160  64.6127 295.5709 15.57514465 51491
RADSAT-U                
1 45262U 98067RF  21015.29072448  .00006341  00000-0  10181-3 0  9992
2 45262  51.6429  12.7832 0007169  94.8099 265.3711 15.54431503 51421
QARMAN                  
1 45263U 98067RG  21015.28514026  .00009577  00000-0  14270-3 0  9992
2 45263  51.6409  11.9703 0007772  60.6704 299.5062 15.55808431 51452
SORTIE                  
1 45264U 98067RH  21015.45720102  .00004467  00000-0  78525-4 0  9993
2 45264  51.6427  13.8807 0008097  70.7428 289.4437 15.52696303 51415
BEIDOU-3 G2             
1 45344U 20017A   21015.54331622 -.00000145  00000-0  00000-0 0  9996
2 45344   2.6376 332.6934 0000858   5.6953  52.4259  1.00272426  3425
COSMOS 2545 [GLONASS-M] 
1 45358U 20018A   21015.90049885 -.00000064  00000-0  00000+0 0  9998
2 45358  64.8784  21.2298 0011564 253.9568 164.9500  2.13102783  6506
STARLINK-1279           
1 45360U 20019A   21015.45873540  .00000429  00000-0  48661-4 0  9999
2 45360  52.9994 292.8200 0002121  70.6028 289.5189 15.05579119 46892
STARLINK-1301           
1 45361U 20019B   21015.78264996  .00000295  00000-0  38691-4 0  9998
2 45361  53.0569 301.3420 0001920  69.7373 290.3822 15.06402352 46812
STARLINK-1306           
1 45362U 20019C   21015.82607796  .00000526  00000-0  55230-4 0  9998
2 45362  53.0012 321.1629 0001467  75.9346 284.1805 15.05586553 46549
STARLINK-1313           
1 45364U 20019E   21015.45541685 -.00001268  00000-0 -67847-4 0  9996
2 45364  53.0008 292.8341 0001941  79.8608 280.2599 15.05581744 46894
